     2.100          NAVIGATION                              RINEX VERSION / TYPE
fic2rin                                 08/16/2009 01:22:23 PGM / RUN BY / DATE
                                                            END OF HEADER
27 09  8 15  1 59 44.0  .743046402931D-04  .318323145621D-11  .000000000000D+00
     .100000000000D+01 -.727187500000D+02  .404159692016D-08 -.150274690026D+01
    -.328943133354D-05  .213159315754D-01  .569038093090D-05  .515375431252D+04
     .525584000000D+06 -.130385160446D-07  .130744634043D+01  .560656189919D-06
     .975125262818D+00  .275562500000D+03 -.155922441950D+01 -.802676291832D-08
     .167864135072D-10  .100000000000D+01  .154400000000D+04  .000000000000D+00
     .240000000000D+01  .000000000000D+00 -.419095158577D-08  .100000000000D+01
     .519906000000D+06  .400000000000D+01
11 09  8 15  1 59 44.0 -.151148997247D-04 -.170530256582D-11  .000000000000D+00
     .000000000000D+00  .912500000000D+01  .649562771182D-08  .224716541329D+01
     .413507223129D-06  .964049389586D-02  .803358852863D-05  .515368982315D+04
     .525584000000D+06 -.206753611565D-06 -.199514385492D+01 -.212341547012D-06
     .888980032650D+00  .186531250000D+03  .713833201355D+00 -.873143512789D-08
    -.285011871888D-09  .100000000000D+01  .154400000000D+04  .000000000000D+00
     .240000000000D+01  .000000000000D+00 -.116415321827D-07  .000000000000D+00
     .522696000000D+06  .400000000000D+01
11 09  8 15  3 59 44.0 -.151270069182D-04 -.170530256582D-11  .000000000000D+00
     .210000000000D+02  .123750000000D+02  .639348059984D-08 -.298583789716D+01
     .448897480965D-06  .964009924792D-02  .801309943199D-05  .515369051170D+04
     .532784000000D+06 -.931322574615D-08 -.199520610793D+01 -.229105353355D-06
     .888978433680D+00  .187593750000D+03  .713835956030D+00 -.863035948911D-08
    -.269296931584D-09  .100000000000D+01  .154400000000D+04  .000000000000D+00
     .240000000000D+01  .000000000000D+00 -.116415321827D-07  .210000000000D+02
     .525606000000D+06  .400000000000D+01
24 09  8 15  3 59 44.0  .212437473238D-03  .295585778076D-11  .000000000000D+00
     .380000000000D+02  .232500000000D+02  .495949229705D-08  .115158905832D+01
     .123493373394D-05  .655536307022D-02  .867433845997D-05  .515366852379D+04
     .532784000000D+06  .130385160446D-06 -.172658744698D+01 -.186264514923D-08
     .949977920474D+00  .207156250000D+03 -.641329442357D+00 -.806640742682D-08
    -.327156484524D-09  .100000000000D+01  .154400000000D+04  .000000000000D+00
     .240000000000D+01  .000000000000D+00 -.139698386192D-08  .380000000000D+02
     .525606000000D+06  .400000000000D+01
27 09  8 15  3 59 44.0  .743279233575D-04  .318323145621D-11  .000000000000D+00
     .700000000000D+01 -.708125000000D+02  .404802575938D-08 -.452577107196D+00
    -.363029539585D-05  .213159067789D-01  .557303428650D-05  .515375572205D+04
     .532784000000D+06 -.312924385071D-06  .130738634177D+01  .227242708206D-06
     .975124560618D+00  .284687500000D+03 -.155926656324D+01 -.832284667997D-08
     .817891211309D-10  .100000000000D+01  .154400000000D+04  .000000000000D+00
     .240000000000D+01  .000000000000D+00 -.419095158577D-08  .700000000000D+01
     .525606000000D+06  .400000000000D+01
 1 09  8 15  4  0  0.0 -.587934628129D-04  .147792889038D-11  .000000000000D+00
     .820000000000D+02 -.525000000000D+02  .557737517721D-08  .136646945562D+01
    -.282190740108D-05  .372627400793D-02  .910088419914D-05  .515373208237D+04
     .532800000000D+06 -.540167093277D-07  .240537626727D+01 -.372529029846D-07
     .961736643872D+00  .201968750000D+03  .952573941751D+00 -.792390149087D-08
     .363943731146D-09  .100000000000D+01  .154400000000D+04  .000000000000D+00
     .240000000000D+01  .630000000000D+02 -.130385160446D-07  .820000000000D+02
     .525606000000D+06  .400000000000D+01
 2 09  8 15  4  0  0.0  .165440142155D-03  .227373675443D-11  .000000000000D+00
     .100000000000D+03  .131562500000D+02  .526200489791D-08 -.114149256242D+01
     .692903995514D-06  .907677505165D-02  .854209065437D-05  .515369053078D+04
     .532800000000D+06 -.186264514923D-07 -.179099368669D+01 -.126659870148D-06
     .940641713343D+00  .204406250000D+03  .288010126076D+01 -.828820237975D-08
    -.220723479733D-09  .100000000000D+01  .154400000000D+04  .000000000000D+00
     .340000000000D+01  .000000000000D+00 -.172294676304D-07  .100000000000D+03
     .525606000000D+06  .400000000000D+01
 3 09  8 15  4  0  0.0  .433863140643D-03  .511590769747D-11  .000000000000D+00
     .930000000000D+02 -.840625000000D+01  .554415950793D-08 -.142313556402D+01
    -.286847352982D-06  .122425570153D-01  .663474202156D-05  .515363764381D+04
     .532800000000D+06  .312924385071D-06 -.293960092590D+01  .521540641785D-07
     .926817396430D+00  .226687500000D+03  .924940378908D+00 -.832713257278D-08
     .325013538118D-09  .100000000000D+01  .154400000000D+04  .000000000000D+00
     .485000000000D+01  .000000000000D+00 -.419095158577D-08  .930000000000D+02
     .525606000000D+06  .400000000000D+01
 4 09  8 15  4  0  0.0 -.220157671720D-03 -.169393388205D-10  .000000000000D+00
     .111000000000D+03  .172812500000D+02  .527557689181D-08  .171801156665D+01
     .108405947685D-05  .866178201977D-02  .902079045773D-05  .515378305054D+04
     .532800000000D+06 -.182539224625D-06 -.177271278735D+01  .143423676491D-06
     .939831857986D+00  .196968750000D+03  .502639771615D+00 -.828498796015D-08
    -.405374028313D-09  .100000000000D+01  .154400000000D+04  .000000000000D+00
     .240000000000D+01  .000000000000D+00 -.605359673500D-08  .111000000000D+03
     .525606000000D+06  .400000000000D+01
 6 09  8 15  4  0  0.0  .218913424760D-03  .864019966684D-11  .000000000000D+00
     .800000000000D+01 -.136250000000D+02  .544844123516D-08  .941834407046D+00
    -.743195414543D-06  .591822282877D-02  .709295272827D-05  .515368913078D+04
     .532800000000D+06 -.335276126862D-07 -.287138652756D+01 -.130385160446D-06
     .934247670000D+00  .228843750000D+03 -.128405096830D+01 -.839606401548D-08
     .245010205659D-09  .100000000000D+01  .154400000000D+04  .000000000000D+00
     .240000000000D+01  .000000000000D+00 -.465661287308D-08  .800000000000D+01
     .525606000000D+06  .400000000000D+01
 7 09  8 15  4  0  0.0  .133765861392D-04 -.682121026330D-12  .000000000000D+00
     .111000000000D+03 -.100281250000D+03  .414588697855D-08 -.281438951734D+01
    -.512041151524D-05  .298716162797D-02  .522844493389D-05  .515366228867D+04
     .532800000000D+06  .000000000000D+00  .136509602571D+01  .260770320892D-07
     .968177076347D+00  .282875000000D+03  .290513409466D+01 -.803104881113D-08
    -.507163982558D-10  .100000000000D+01  .154400000000D+04  .000000000000D+00
     .240000000000D+01  .000000000000D+00 -.107102096081D-07  .111000000000D+03
     .525606000000D+06  .400000000000D+01
 8 09  8 15  4  0  0.0 -.216705258936D-03 -.170530256582D-11  .000000000000D+00
     .110000000000D+02 -.109093750000D+03  .359157817508D-08  .276456045168D+01
    -.557303428650D-05  .108325611800D-01  .571087002754D-05  .515363715553D+04
     .532800000000D+06 -.100582838058D-06  .142711583642D+01  .558793544769D-07
     .989384414575D+00  .287281250000D+03  .300723105671D+01 -.766639076452D-08
    -.104647216119D-09  .100000000000D+01  .154400000000D+04  .000000000000D+00
     .240000000000D+01  .000000000000D+00 -.372529029846D-08  .110000000000D+02
     .525606000000D+06  .400000000000D+01
 9 09  8 15  4  0  0.0  .720429234207D-04  .204636307899D-11  .000000000000D+00
     .620000000000D+02 -.843125000000D+02  .379051503302D-08  .252025489087D+01
    -.435300171375D-05  .207523794379D-01  .459887087345D-05  .515363697433D+04
     .532800000000D+06  .227242708206D-06  .133163614145D+01 -.633299350739D-07
     .977072749105D+00  .294875000000D+03  .150367305761D+01 -.756424365254D-08
    -.106075847056D-09  .100000000000D+01  .154400000000D+04  .000000000000D+00
     .340000000000D+01  .000000000000D+00 -.558793544769D-08  .620000000000D+02
     .525606000000D+06  .400000000000D+01
10 09  8 15  4  0  0.0 -.212779268622D-04 -.795807864051D-12  .000000000000D+00
     .780000000000D+02  .855937500000D+02  .466948021688D-08 -.132948129823D+00
     .453181564808D-05  .856252317317D-02  .778399407864D-05  .515365309525D+04
     .532800000000D+06  .558793544769D-08 -.705872241086D+00  .800937414169D-07
     .957154266574D+00  .224343750000D+03  .626157535049D+00 -.820677041636D-08
    -.251796202608D-09  .100000000000D+01  .154400000000D+04  .000000000000D+00
     .340000000000D+01  .000000000000D+00 -.279396772385D-08  .780000000000D+02
     .525606000000D+06  .400000000000D+01
12 09  8 15  4  0  0.0 -.234330538660D-03  .591171556152D-11  .000000000000D+00
     .690000000000D+02 -.587812500000D+02  .410481383912D-08 -.283196266716D+01
    -.294670462608D-05  .315803370904D-02  .896863639355D-05  .515360182190D+04
     .532800000000D+06 -.558793544769D-08  .241798788800D+01  .931322574615D-08
     .967856594883D+00  .207468750000D+03 -.607528105710D+00 -.776710924556D-08
     .411802867528D-09  .100000000000D+01  .154400000000D+04  .000000000000D+00
     .240000000000D+01  .000000000000D+00 -.116415321827D-07  .690000000000D+02
     .525606000000D+06  .400000000000D+01
13 09  8 15  4  0  0.0  .303173437715D-03  .568434188608D-12  .000000000000D+00
     .860000000000D+02  .277187500000D+02  .386980405001D-08 -.545973700442D+00
     .141188502312D-05  .407497980632D-02  .279024243355D-05  .515366797256D+04
     .532800000000D+06 -.819563865662D-07  .377215768871D+00  .577419996262D-07
     .994827049145D+00  .343156250000D+03  .164722762585D+01 -.808105089392D-08
    -.746459664470D-10  .100000000000D+01  .154400000000D+04  .000000000000D+00
     .240000000000D+01  .000000000000D+00 -.111758708954D-07  .860000000000D+02
     .525606000000D+06  .400000000000D+01
